[{"OBJECT_NAME":"STARLINK-33567","OBJECT_ID":"2025-015R","EPOCH":"2026-03-09T21:25:28.484256","MEAN_MOTION":15.3023216,"ECCENTRICITY":0.00013258,"INCLINATION":53.1615,"RA_OF_ASC_NODE":321.4086,"ARG_OF_PERICENTER":132.6746,"MEAN_ANOMALY":227.4366,"EPHEMERIS_TYPE":0,"CLASSIFICATION_TYPE":"U","NORAD_CAT_ID":62773,"ELEMENT_SET_NO":999,"REV_AT_EPOCH":6451,"BSTAR":0.0012588691,"MEAN_MOTION_DOT":0.00037149,"MEAN_MOTION_DDOT":0},{"OBJECT_NAME":"OKEAN-1","OBJECT_ID":"1988-056A","EPOCH":"2026-03-09T21:19:04.260000","MEAN_MOTION":15.31672069,"ECCENTRICITY":0.00129431,"INCLINATION":82.4671,"RA_OF_ASC_NODE":262.7586,"ARG_OF_PERICENTER":168.0696,"MEAN_ANOMALY":192.0855,"EPHEMERIS_TYPE":0,"CLASSIFICATION_TYPE":"U","NORAD_CAT_ID":19274,"ELEMENT_SET_NO":999,"REV_AT_EPOCH":3511,"BSTAR":0.00038371192,"MEAN_MOTION_DOT":0.00011798,"MEAN_MOTION_DDOT":0}]
